STARLINK-36829          
1 67957U 26037AB  26071.25001157 -.00000009  00000+0  24845-5 0  9996
2 67957  42.9986 182.6389 0001404 280.7246 288.6442 15.82036914  3612
STARLINK-36799          
1 67958U 26037AC  26071.25001157  .00036807  00000+0  17662-3 0  9998
2 67958  42.9985 182.6064 0001471 266.8691 315.3149 15.82011771  3611
STARLINK-36834          
1 67959U 26037AD  26071.25001157  .00110992  00000+0  52401-3 0  9997
2 67959  42.9985 182.5842 0001517 276.9220 313.8114 15.81970736  3615
STARLINK-36841          
1 67960U 26037AE  26071.25001157  .00105504  00000+0  49849-3 0  9994
2 67960  42.9985 182.5950 0001673 267.6546 318.8090 15.81972504  3611
STARLINK-36912          
1 67961U 26038A   26071.25001157 -.02359431  00000+0 -15638-1 0  9997
2 67961  97.2789  81.6771 0001646  88.7397 127.0017 15.78725349  3611
STARLINK-36881          
1 67962U 26038B   26071.25001157 -.02384782  00000+0 -15421-1 0  9995
2 67962  97.2779  81.6790 0001621  96.7016 123.5272 15.79305027  3614
STARLINK-36357          
1 67963U 26038C   26071.25001157 -.02391557  00000+0 -15217-1 0  9997
2 67963  97.2773  81.6831 0001578  86.3094 144.8447 15.79669721  3611
STARLINK-36349          
1 67964U 26038D   26071.25001157 -.02361619  00000+0 -15484-1 0  9990
2 67964  97.2769  81.6800 0001666 104.5755 120.5514 15.78966070  3610
STARLINK-36806          
1 67965U 26038E   26071.25001157 -.02390941  00000+0 -15253-1 0  9995
2 67965  97.2764  81.6851 0001468 109.7145 127.6122 15.79612561  3619
STARLINK-36820          
1 67966U 26038F   26071.25001157 -.02365417  00000+0 -14938-1 0  9995
2 67966  97.2765  81.6875 0001928 108.3339 134.3767 15.79789922  3614
STARLINK-36819          
1 67967U 26038G   26071.25001157 -.02362133  00000+0 -14858-1 0  9999
2 67967  97.2761  81.6897 0001615 110.4771 137.9427 15.79876073  3618
STARLINK-36812          
1 67968U 26038H   26071.25001157 -.02345864  00000+0 -14544-1 0  9994
2 67968  97.2752  81.6905 0001587 120.0883 133.3084 15.80166032  3616
